#dP2019  6 30  0  0  0.00000000      96 __u+U ITR00 FIT  IAC
## 2060      0.00000000   900.00000000 58664 0.0000000000000
+   98   C01C02C03C04C06C07C08C09C10C11C12C13C14C16E01E02E03
+        E04E05E07E08E09E11E12E13E14E15E18E19E21E24E25E26E27
+        E30E31E33E36G01G02G03G05G06G07G08G09G10G11G12G13G14
+        G15G16G17G18G19G20G21G22G23G24G25G26G27G28G29G30G31
+        G32J01J02J03J07R01R02R03R04R05R06R07R08R09R10R11R12
+        R13R14R15R16R17R18R19R20R21R22R23R24R26  0  0  0  0
++        13 13 13 13  9  9  9  9  9  8  8  9  8  9  5  5  5
++         5  5  5  5  5  5  5  5  5  5  5  6  5  5  5  5  5
++         5  5  5  5  3  3  3  3  3  3  3  3  3  3  3  3  3
++         3  3  3  3  3  3  3  3  3  3  3  3  3  3  3  3  3
++         3  9  8  9 14  5  6  6  5  5 10  5  5  5  5  5  5
++         6  5  5  6  5  5  6  6  5  5  5  6  8  0  0  0  0
%c M  cc GPS ccc cccc cccc cccc cccc ccccc ccccc ccccc ccccc
%c cc cc ccc ccc cccc cccc cccc cccc ccccc ccccc ccccc ccccc
%f  0.0000000  0.000000000  0.00000000000  0.000000000000000
%f  0.0000000  0.000000000  0.00000000000  0.000000000000000
%i    0    0    0    0      0      0      0      0         0
%i    0    0    0    0      0      0      0      0         0
/* INFORMATION & ANALYSIS CENTER (IAC) OF MCC   (RAPID DATA)
/* S/V CLOCKS ARE ALIGNED TO GPS & GLONASS TIME RESPECTIVELY
/* USING THE BROADCAST EPHEMERIS                            
/* PCV:IGS14_2056 OL/AL:FES2004  NONE     YN ORB:CoN CLK:CoN
*  2019 06 30  9 30  0.00000000
PC01 -32321.809995  27061.558576   -389.094955    777.662247
PC02   4431.428516  41925.927056   1240.625358     64.694478
PC03 -14778.165024  39501.322218    520.167185    648.009289
PC04 -39624.417272  14391.124592     68.303575    336.399703
PC06 -22280.031060  35788.144108  -3877.224134    583.465180
PC07  -8657.771758  30017.988223 -27967.724569     25.452470
PC08 -16965.320862  19018.079800  33605.705845    167.318214
PC09 -11226.127641  36099.704977 -18784.160856   -223.419410
PC10   5074.358174  37735.052134 -17489.583842     56.520516
PC11 -24769.944346  12264.786430  -3559.948507    249.638782
PC12 -13180.108566  -9427.628890 -22648.825589    816.126709
PC13  -2096.597140  23154.452034  35220.823753   -810.921471
PC14 -16087.552247  -1717.664074  22803.500122    545.950871
PC16 -19777.375141  36704.367790  -6826.134361   -902.844269
PE01  13909.858206  25029.106581  -7479.656936   -637.053175
PE02 -13957.722607 -25025.651095   7421.400464     67.147110
PE03  -2966.626360 -24550.477313  16288.204142   -183.032144
PE04  15458.134915   7529.156915 -24081.072759   -313.473745
PE05  11371.966068 -27307.288181  -1128.712468   -470.588297
PE07 -18999.812736  14065.813816  17821.427292   -217.229169
PE08 -15436.463107  -7255.059377  24202.971246   6331.586605
PE09  18774.715490 -14327.589813 -17840.799591   6393.239738
PE11  27945.966863  -8214.528506  -5215.491684   5665.427993
PE12  25743.226606   4924.027988  13733.717928   6321.433937
PE13 -27975.504633   8247.137824   5077.898591    389.283789
PE14 -23501.902901  -1123.387043 -21560.747948   -624.839635
PE15 -25973.411322  -4516.521018 -13462.567694    904.952082
PE18  20746.812241  -8539.750813  10541.183266   -720.889027
PE19   1445.062479  25536.313209 -14888.022105     -5.453255
PE21  -2803.120085  19581.888891 -22018.760154   -541.706709
PE24  17733.779385  -2827.570652  23520.924194   6001.837112
PE25   2846.667151 -19555.843122  22045.432534   1757.317228
PE26 -13636.169726  16257.037404  20637.246534   4394.784220
PE27 -17842.995076   2617.719073 -23471.280639    438.765330
PE30 -22334.375389 -15778.853400 -11339.589074   4748.999325
PE31  22379.008906  15824.170593  11166.908070   -466.069496
PE33   8740.474047  14675.270209  24174.645972   -469.871653
PE36  13577.554099 -16217.899866 -20704.574143    693.388934
PG01 -17359.517333 -13683.837634 -15152.774343    -54.480571
PG02  -5257.362154  14969.759335  21896.937738   -249.277515
PG03 -13080.652347 -22065.245315   7029.882682    183.491983
PG05    355.750959  23740.499696  11566.116481      0.294329
PG06 -19595.342206   7666.433169  16268.713326    163.371621
PG07 -25796.973428  -6965.576622   2633.687516    -54.775264
PG08   -716.765534 -18993.631309 -18435.908445   -149.378570
PG09 -17768.678996   -489.414060  19699.243283    381.022346
PG10  14210.982902  -5198.323276 -21763.204141     -0.316789
PG11 -12806.592152 -12625.689948 -20011.219919   -572.624411
PG12  10207.226549  24087.080412   4859.758346    228.367533
PG13  -9457.342400  21062.060455 -13192.284811    -56.774973
PG14  18651.747461 -18763.038274    -13.937407    -73.741017
PG15   3815.098036  18787.229039 -18492.218720   -303.900493
PG16   1715.934541 -23562.631754  11498.527145    -52.266265
PG17 -20756.586982  14178.895447  -8033.785571     80.443657
PG18  -8420.906046 -15599.847263 -20314.839701     66.089738
PG19 -20060.939892  17360.762759  -2139.169593   -300.175707
PG20  18073.321257   4198.792258 -19161.894733    525.689979
PG21  26289.208365   2246.541788  -1301.390131   -163.549970
PG22 -10592.898908 -24403.418668   -290.071099   -724.487482
PG23  -9598.894188 -12876.864979  21451.720677   -179.451419
PG24  14881.295672  14424.304729 -16949.190784    -68.169519
PG25  16209.045671  14495.733281  15207.888285   -769.848863
PG26   7817.776581 -16937.256393  18818.889737    239.617864
PG27  10234.007030 -22342.887792  -9787.506065   -171.743139
PG28 -13896.021055   4072.811652 -21665.306693    767.000083
PG29  14954.277465   4904.571969  21361.482490    163.523740
PG30 -25360.782314    403.047082  -8189.161834   -133.819440
PG31  18769.716788  -8274.309330  17106.115215     27.566657
PG32  20084.401258 -15329.437475  -7921.415669    -22.261338
PJ01 -26975.962751  25906.429646  24493.473687   -279.894335
PJ02 -23665.903025  16458.557960 -26347.922243     -0.700962
PJ03 -27225.649941  32345.257499   3561.917048      1.441950
PJ07 -25387.445333  33661.008166     15.955983     -0.025572
PR01   5569.844389  18631.954938 -16489.535026     46.069058
PR02  11230.617410  -2125.125736 -22754.717252    376.026284
PR03   9484.129731 -19273.177677 -13677.258225     -2.468498
PR04   1879.049526 -25141.216076   3852.681848    312.029652
PR05  -6187.749226 -16717.257016  18253.048513     31.009723
PR06 -11451.889844   3390.237877  22538.068033    157.217298
PR07  -9397.055660  19651.368863  13344.485060    -22.638515
PR08  -2365.276265  25222.076531  -2964.174673     16.980732
PR09 -19155.341674  -5341.020283 -16006.300455     77.683855
PR10  -9203.345884   6231.728616 -22984.466742     53.333565
PR11   7476.615869  16823.795831 -17615.005457    -71.144542
PR12  18938.709514  16837.215400  -2961.307995     39.382387
PR13  19833.662550   6777.160402  14513.938384    -25.421297
PR14   9071.208515  -6712.181609  22886.937759     40.449213
PR15  -6790.422623 -16488.326445  18263.326300    102.834052
PR16 -19191.509801 -16469.905592   2830.972482      7.989905
PR17  20939.823700 -12118.612770  -8135.011040    239.835967
PR18   7108.667359 -12854.684949 -20828.891887     -1.428032
PR19 -10223.203360  -6943.788231 -22319.203862    -39.219164
PR20 -23324.595709   3792.747805  -9663.599254   -382.837624
PR21 -20561.996691  12239.999431   8796.286575    -56.991420
PR22  -4505.169457  12281.216379  21922.687969    -26.276484
PR23  15239.118463   3858.078791  20074.363353    237.647638
PR24  23671.974795  -5239.600441   7871.375391   -182.109275
PR26 -22193.800240   2587.117782 -12273.999278    -19.584322
EOF
